{
    "links": {
        "self": "http://www.neowsapp.com/rest/v1/neo/3843527?api_key=iIulBulltgU6a56xZRHN4H3l9WmuAYTsLGpBGhQ2"
    },
    "id": "3843527",
    "neo_reference_id": "3843527",
    "name": "(2019 PD2)",
    "designation": "2019 PD2",
    "nasa_jpl_url": "http://ssd.jpl.nasa.gov/sbdb.cgi?sstr=3843527",
    "absolute_magnitude_h": 20.0,
    "estimated_diameter": {
        "kilometers": {
            "estimated_diameter_min": 0.2658,
            "estimated_diameter_max": 0.5943468684
        },
        "meters": {
            "estimated_diameter_min": 265.8,
            "estimated_diameter_max": 594.3468684194
        },
        "miles": {
            "estimated_diameter_min": 0.1651604118,
            "estimated_diameter_max": 0.369309908
        },
        "feet": {
            "estimated_diameter_min": 872.047272,
            "estimated_diameter_max": 1949.9569797852
        }
    },
    "is_potentially_hazardous_asteroid": false,
    "close_approach_data": [
        {
            "close_approach_date": "2013-04-08",
            "close_approach_date_full": "2013-Apr-08 19:05",
            "epoch_date_close_approach": 1365447900000,
            "relative_velocity": {
                "kilometers_per_second": "7.884406504",
                "kilometers_per_hour": "28383.8634145647",
                "miles_per_hour": "17636.6289088999"
            },
            "miss_distance": {
                "astronomical": "1.2775568403",
                "lunar": "496.9696108767",
                "kilometers": "191119782.112810161",
                "miles": "118756325.8008997818"
            },
            "orbiting_body": "Juptr"
        },
        {
            "close_approach_date": "2019-07-11",
            "close_approach_date_full": "2019-Jul-11 06:45",
            "epoch_date_close_approach": 1562827500000,
            "relative_velocity": {
                "kilometers_per_second": "20.6950412317",
                "kilometers_per_hour": "74502.1484339584",
                "miles_per_hour": "46292.7377310893"
            },
            "miss_distance": {
                "astronomical": "0.3692023305",
                "lunar": "143.6197065645",
                "kilometers": "55231882.241836035",
                "miles": "34319500.208705883"
            },
            "orbiting_body": "Earth"
        },
        {
            "close_approach_date": "2023-05-13",
            "close_approach_date_full": "2023-May-13 21:08",
            "epoch_date_close_approach": 1684012080000,
            "relative_velocity": {
                "kilometers_per_second": "21.8546585443",
                "kilometers_per_hour": "78676.7707594969",
                "miles_per_hour": "48886.6856977552"
            },
            "miss_distance": {
                "astronomical": "0.17893513",
                "lunar": "69.60576557",
                "kilometers": "26768314.3161731",
                "miles": "16633059.23086478"
            },
            "orbiting_body": "Earth"
        },
        {
            "close_approach_date": "2025-01-17",
            "close_approach_date_full": "2025-Jan-17 14:49",
            "epoch_date_close_approach": 1737125340000,
            "relative_velocity": {
                "kilometers_per_second": "7.368500675",
                "kilometers_per_hour": "26526.6024298865",
                "miles_per_hour": "16482.599159837"
            },
            "miss_distance": {
                "astronomical": "1.1658131439",
                "lunar": "453.5013129771",
                "kilometers": "174403163.145443493",
                "miles": "108369100.4366184834"
            },
            "orbiting_body": "Juptr"
        }
    ],
    "orbital_data": {
        "orbit_id": "7",
        "orbit_determination_date": "2019-09-19 06:06:23",
        "first_observation_date": "2019-08-08",
        "last_observation_date": "2019-09-19",
        "data_arc_in_days": 42,
        "observations_used": 46,
        "orbit_uncertainty": "7",
        "minimum_orbit_intersection": ".0850115",
        "jupiter_tisserand_invariant": "3.039",
        "epoch_osculation": "2459000.5",
        "eccentricity": ".6339201831440721",
        "semi_major_axis": "2.477998428907183",
        "inclination": "28.43079142602711",
        "ascending_node_longitude": "249.2395007621957",
        "orbital_period": "1424.787075484943",
        "perihelion_distance": ".9071452110236186",
        "perihelion_argument": "18.32535788520357",
        "aphelion_distance": "4.048851646790747",
        "perihelion_time": "2458672.162128982771",
        "mean_anomaly": "82.96091086169567",
        "mean_motion": ".2526693329790837",
        "equinox": "J2000",
        "orbit_class": {
            "orbit_class_type": "APO",
            "orbit_class_description": "Near-Earth asteroid orbits which cross the Earth’s orbit similar to that of 1862 Apollo",
            "orbit_class_range": "a (semi-major axis) > 1.0 AU; q (perihelion) < 1.017 AU"
        }
    },
    "is_sentry_object": false
}